GLOBALSTAR M057         
1 25943U 99058A   25300.47918461 -.00000076  00000+0  15019-3 0  9996
2 25943  52.0000 332.7593 0002257 284.4859  75.5740 12.24827826183147
GLOBALSTAR M059         
1 25944U 99058B   25300.95416656 -.00000105  00000+0 -23871-3 0  9998
2 25944  52.0011 207.9933 0000645  69.9317  12.5520 11.99986623589986
GLOBALSTAR M056         
1 25945U 99058C   25300.98950167 -.00000083  00000+0  54641-4 0  9996
2 25945  51.9953 206.4526 0001671  72.5867 300.1196 12.04780113178636
GLOBALSTAR M031         
1 25946U 99058D   25300.84895071  .00000007  00000+0  98662-3 0  9999
2 25946  51.9948  91.2168 0002326  95.3932  52.7569 12.16041642180689
GLOBALSTAR M039         
1 25961U 99062A   25300.94973635 -.00000014  00000+0  49853-3 0  9992
2 25961  51.9841 224.3439 0002113 295.9434  64.1214 12.62335124196983
GLOBALSTAR M034         
1 25962U 99062B   25300.76888569 -.00000033  00000+0  76090-3 0  9998
2 25962  51.9907  26.7485 0013577 291.4610 216.2846 11.79449874154031
GLOBALSTAR M029         
1 25963U 99062C   25300.82193416 -.00000086  00000+0  82027-6 0  9994
2 25963  51.9785  96.2699 0002811  40.7153 111.2354 11.99902835185047
GLOBALSTAR M061         
1 25964U 99062D   25300.97476744 -.00000097  00000+0 -27181-3 0  9999
2 25964  51.9784 212.0128 0005157 211.1755 233.7177 11.76777064136813
